{
  "type": "FeatureCollection",
  "features": [
    {
      "type": "Feature",
      "properties": {
        "norad_id": 42939,
        "name": "COSMOS 2522 (752)",
        "group": "gnss",
        "lat": 49.25962204663438,
        "lon": -127.15307836652326,
        "alt_km": 19140.63828101264,
        "timestamp": "2025-12-05T20:43:02.300808+00:00",
        "meta_object_name": "COSMOS 2522 (752)",
        "meta_object_id": "2017-055A",
        "meta_epoch": "2025-12-02T23:20:47.282208",
        "meta_mean_motion": 2.1310185,
        "meta_eccentricity": 0.00065327,
        "meta_inclination": 64.0758,
        "meta_ra_of_asc_node": 198.5618,
        "meta_arg_of_pericenter": 226.0683,
        "meta_mean_anomaly": 133.9743,
        "meta_ephemeris_type": 0,
        "meta_classification_type": "U",
        "meta_norad_cat_id": 42939,
        "meta_element_set_no": 999,
        "meta_rev_at_epoch": 6379,
        "meta_bstar": 0,
        "meta_mean_motion_dot": 1.07e-06,
        "meta_mean_motion_ddot": 0,
        "tle_line1": "1 42939U 17055A   25336.97276947  .00000107  00000+0  00000+0 0  9991",
        "tle_line2": "2 42939  64.0758 198.5618 0006532 226.0683 133.9743  2.13101850 63796"
      },
      "geometry": {
        "type": "Point",
        "coordinates": [
          -127.15307836652326,
          49.25962204663438
        ]
      }
    },
    {
      "type": "Feature",
      "properties": {
        "norad_id": 42965,
        "name": "QZS-4 (QZSS/PRN 195)",
        "group": "gnss",
        "lat": 7.636696914152751,
        "lon": 156.83024467813752,
        "alt_km": 36283.42487590576,
        "timestamp": "2025-12-05T20:43:02.300819+00:00",
        "meta_object_name": "QZS-4 (QZSS/PRN 195)",
        "meta_object_id": "2017-062A",
        "meta_epoch": "2025-12-02T08:37:38.758368",
        "meta_mean_motion": 1.0025504,
        "meta_eccentricity": 0.07524683,
        "meta_inclination": 40.2317,
        "meta_ra_of_asc_node": 346.0052,
        "meta_arg_of_pericenter": 271.2474,
        "meta_mean_anomaly": 80.8165,
        "meta_ephemeris_type": 0,
        "meta_classification_type": "U",
        "meta_norad_cat_id": 42965,
        "meta_element_set_no": 999,
        "meta_rev_at_epoch": 2983,
        "meta_bstar": 0,
        "meta_mean_motion_dot": -3.15e-06,
        "meta_mean_motion_ddot": 0,
        "tle_line1": "1 42965U 17062A   25336.35947637 -.00000315  00000+0  00000+0 0  9993",
        "tle_line2": "2 42965  40.2317 346.0052 0752468 271.2474  80.8165  1.00255040 29831"
      },
      "geometry": {
        "type": "Point",
        "coordinates": [
          156.83024467813752,
          7.636696914152751
        ]
      }
    },
    {
      "type": "Feature",
      "properties": {
        "norad_id": 43001,
        "name": "BEIDOU-3 M1 (C19)",
        "group": "gnss",
        "lat": 18.906064469803617,
        "lon": 82.54752097715445,
        "alt_km": 21521.201238878093,
        "timestamp": "2025-12-05T20:43:02.300831+00:00",
        "meta_object_name": "BEIDOU-3 M1 (C19)",
        "meta_object_id": "2017-069A",
        "meta_epoch": "2025-12-03T03:27:53.485056",
        "meta_mean_motion": 1.86230745,
        "meta_eccentricity": 0.00088373,
        "meta_inclination": 56.5186,
        "meta_ra_of_asc_node": 69.5514,
        "meta_arg_of_pericenter": 303.7187,
        "meta_mean_anomaly": 56.1997,
        "meta_ephemeris_type": 0,
        "meta_classification_type": "U",
        "meta_norad_cat_id": 43001,
        "meta_element_set_no": 999,
        "meta_rev_at_epoch": 5495,
        "meta_bstar": 0,
        "meta_mean_motion_dot": -4.9e-07,
        "meta_mean_motion_ddot": 0,
        "tle_line1": "1 43001U 17069A   25337.14436904 -.00000049  00000+0  00000+0 0  9994",
        "tle_line2": "2 43001  56.5186  69.5514 0008837 303.7187  56.1997  1.86230745 54952"
      },
      "geometry": {
        "type": "Point",
        "coordinates": [
          82.54752097715445,
          18.906064469803617
        ]
      }
    },
    {
      "type": "Feature",
      "properties": {
        "norad_id": 43002,
        "name": "BEIDOU-3 M2 (C20)",
        "group": "gnss",
        "lat": 48.701885229540586,
        "lon": 118.28197899617004,
        "alt_km": 21523.06217878497,
        "timestamp": "2025-12-05T20:43:02.300845+00:00",
        "meta_object_name": "BEIDOU-3 M2 (C20)",
        "meta_object_id": "2017-069B",
        "meta_epoch": "2025-12-04T16:38:46.347936",
        "meta_mean_motion": 1.862306,
        "meta_eccentricity": 0.00062566,
        "meta_inclination": 56.5195,
        "meta_ra_of_asc_node": 69.536,
        "meta_arg_of_pericenter": 331.7329,
        "meta_mean_anomaly": 28.2399,
        "meta_ephemeris_type": 0,
        "meta_classification_type": "U",
        "meta_norad_cat_id": 43002,
        "meta_element_set_no": 999,
        "meta_rev_at_epoch": 5497,
        "meta_bstar": 0,
        "meta_mean_motion_dot": -4.9e-07,
        "meta_mean_motion_ddot": 0,
        "tle_line1": "1 43002U 17069B   25338.69359199 -.00000049  00000+0  00000+0 0  9996",
        "tle_line2": "2 43002  56.5195  69.5360 0006256 331.7329  28.2399  1.86230600 54972"
      },
      "geometry": {
        "type": "Point",
        "coordinates": [
          118.28197899617004,
          48.701885229540586
        ]
      }
    },
    {
      "type": "Feature",
      "properties": {
        "norad_id": 43055,
        "name": "GSAT0215 (GALILEO 19)",
        "group": "gnss",
        "lat": -53.23438423217293,
        "lon": 115.58644111592675,
        "alt_km": 23225.192339249923,
        "timestamp": "2025-12-05T20:43:02.300858+00:00",
        "meta_object_name": "GSAT0215 (GALILEO 19)",
        "meta_object_id": "2017-079A",
        "meta_epoch": "2025-11-29T13:52:03.216864",
        "meta_mean_motion": 1.70473718,
        "meta_eccentricity": 0.0001588,
        "meta_inclination": 55.1353,
        "meta_ra_of_asc_node": 227.0004,
        "meta_arg_of_pericenter": 310.5234,
        "meta_mean_anomaly": 49.536,
        "meta_ephemeris_type": 0,
        "meta_classification_type": "U",
        "meta_norad_cat_id": 43055,
        "meta_element_set_no": 999,
        "meta_rev_at_epoch": 4958,
        "meta_bstar": 0,
        "meta_mean_motion_dot": 2.7e-07,
        "meta_mean_motion_ddot": 0,
        "tle_line1": "1 43055U 17079A   25333.57781501  .00000027  00000+0  00000+0 0  9998",
        "tle_line2": "2 43055  55.1353 227.0004 0001588 310.5234  49.5360  1.70473718 49587"
      },
      "geometry": {
        "type": "Point",
        "coordinates": [
          115.58644111592675,
          -53.23438423217293
        ]
      }
    },
    {
      "type": "Feature",
      "properties": {
        "norad_id": 43056,
        "name": "GSAT0216 (GALILEO 20)",
        "group": "gnss",
        "lat": 53.58715586059823,
        "lon": -62.411806525802064,
        "alt_km": 23220.525423625964,
        "timestamp": "2025-12-05T20:43:02.300870+00:00",
        "meta_object_name": "GSAT0216 (GALILEO 20)",
        "meta_object_id": "2017-079B",
        "meta_epoch": "2025-12-03T23:24:20.577888",
        "meta_mean_motion": 1.70473886,
        "meta_eccentricity": 0.0002683,
        "meta_inclination": 55.1334,
        "meta_ra_of_asc_node": 226.8793,
        "meta_arg_of_pericenter": 313.43,
        "meta_mean_anomaly": 46.6407,
        "meta_ephemeris_type": 0,
        "meta_classification_type": "U",
        "meta_norad_cat_id": 43056,
        "meta_element_set_no": 999,
        "meta_rev_at_epoch": 4967,
        "meta_bstar": 0,
        "meta_mean_motion_dot": 4.1e-07,
        "meta_mean_motion_ddot": 0,
        "tle_line1": "1 43056U 17079B   25337.97523817  .00000041  00000+0  00000+0 0  9997",
        "tle_line2": "2 43056  55.1334 226.8793 0002683 313.4300  46.6407  1.70473886 49678"
      },
      "geometry": {
        "type": "Point",
        "coordinates": [
          -62.411806525802064,
          53.58715586059823
        ]
      }
    },
    {
      "type": "Feature",
      "properties": {
        "norad_id": 43057,
        "name": "GSAT0217 (GALILEO 21)",
        "group": "gnss",
        "lat": -43.35357229635773,
        "lon": -174.27839836702216,
        "alt_km": 23220.203613758807,
        "timestamp": "2025-12-05T20:43:02.300881+00:00",
        "meta_object_name": "GSAT0217 (GALILEO 21)",
        "meta_object_id": "2017-079C",
        "meta_epoch": "2025-12-04T04:42:09.816480",
        "meta_mean_motion": 1.70473692,
        "meta_eccentricity": 0.00028457,
        "meta_inclination": 55.1313,
        "meta_ra_of_asc_node": 226.8712,
        "meta_arg_of_pericenter": 336.0147,
        "meta_mean_anomaly": 24.0661,
        "meta_ephemeris_type": 0,
        "meta_classification_type": "U",
        "meta_norad_cat_id": 43057,
        "meta_element_set_no": 999,
        "meta_rev_at_epoch": 4966,
        "meta_bstar": 0,
        "meta_mean_motion_dot": 4.1e-07,
        "meta_mean_motion_ddot": 0,
        "tle_line1": "1 43057U 17079C   25338.19594695  .00000041  00000+0  00000+0 0  9995",
        "tle_line2": "2 43057  55.1313 226.8712 0002845 336.0147  24.0661  1.70473692 49663"
      },
      "geometry": {
        "type": "Point",
        "coordinates": [
          -174.27839836702216,
          -43.35357229635773
        ]
      }
    }
  ]
}